start=new Date('2023-06-15T00:00:00.000Z').valueOf();
sats=[{"BSTAR":"0.00008489600000","ECCENTRICITY":"0.00010010","TLE_LINE2":"2 48382  53.0526 156.3793 0001001  76.3627 283.7474 15.06397571116596","MEAN_ELEMENT_THEORY":"SGP4","MEAN_MOTION_DOT":"0.00000983","SEMIMAJOR_AXIS":"6925.356","MEAN_MOTION_DDOT":"0.0000000000000","MEAN_ANOMALY":"283.7474","MEAN_MOTION":"15.06397571","APOAPSIS":"547.914","FILE":"3933215","COUNTRY_CODE":"US","ARG_OF_PERICENTER":"76.3627","EPOCH":"2023-06-14T16:09:10.648224","REV_AT_EPOCH":"11659","RCS_SIZE":"LARGE","NORAD_CAT_ID":"48382","EPHEMERIS_TYPE":"0","REF_FRAME":"TEME","LAUNCH_DATE":"2021-05-04","OBJECT_TYPE":"PAYLOAD","INCLINATION":"53.0526","CLASSIFICATION_TYPE":"U","ELEMENT_SET_NO":"999","PERIAPSIS":"546.528","TIME_SYSTEM":"UTC","OBJECT_NAME":"STARLINK-2585","RA_OF_ASC_NODE":"156.3793","SITE":"AFETR","GP_ID":"233946243","OBJECT_ID":"2021-038AF","CENTER_NAME":"EARTH","DECAY_DATE":null,"PERIOD":"95.592","TLE_LINE1":"1 48382U 21038AF  23165.67303991  .00000983  00000-0  84896-4 0  9993"},{"ECCENTRICITY":"0.00011110","BSTAR":"0.00007319100000","SEMIMAJOR_AXIS":"6925.346","MEAN_MOTION_DOT":"0.00000809","MEAN_ELEMENT_THEORY":"SGP4","TLE_LINE2":"2 48383  53.0535 156.3923 0001111  73.9444 286.1667 15.06400972117811","MEAN_ANOMALY":"286.1667","MEAN_MOTION_DDOT":"0.0000000000000","COUNTRY_CODE":"US","APOAPSIS":"547.980","FILE":"3933215","MEAN_MOTION":"15.06400972","EPOCH":"2023-06-14T16:03:51.354432","ARG_OF_PERICENTER":"73.9444","NORAD_CAT_ID":"48383","RCS_SIZE":"LARGE","REV_AT_EPOCH":"11781","REF_FRAME":"TEME","EPHEMERIS_TYPE":"0","ELEMENT_SET_NO":"999","CLASSIFICATION_TYPE":"U","OBJECT_TYPE":"PAYLOAD","LAUNCH_DATE":"2021-05-04","INCLINATION":"53.0535","OBJECT_NAME":"STARLINK-2599","TIME_SYSTEM":"UTC","PERIAPSIS":"546.441","SITE":"AFETR","RA_OF_ASC_NODE":"156.3923","DECAY_DATE":null,"CENTER_NAME":"EARTH","GP_ID":"233944992","OBJECT_ID":"2021-038AG","TLE_LINE1":"1 48383U 21038AG  23165.66934438  .00000809  00000-0  73191-4 0  9992","PERIOD":"95.592"},{"GP_ID":"233944742","OBJECT_ID":"2021-038AH","CENTER_NAME":"EARTH","DECAY_DATE":null,"PERIOD":"95.591","TLE_LINE1":"1 48384U 21038AH  23165.66564405  .00001841  00000-0  14241-3 0  9993","EPHEMERIS_TYPE":"0","REF_FRAME":"TEME","INCLINATION":"53.0543","LAUNCH_DATE":"2021-05-04","OBJECT_TYPE":"PAYLOAD","ELEMENT_SET_NO":"999","CLASSIFICATION_TYPE":"U","PERIAPSIS":"546.826","TIME_SYSTEM":"UTC","OBJECT_NAME":"STARLINK-2601","SITE":"AFETR","RA_OF_ASC_NODE":"156.4069","MEAN_MOTION":"15.06413562","APOAPSIS":"547.518","FILE":"3933215","COUNTRY_CODE":"US","ARG_OF_PERICENTER":"59.3627","EPOCH":"2023-06-14T15:58:31.645920","REV_AT_EPOCH":"11781","RCS_SIZE":"LARGE","NORAD_CAT_ID":"48384","BSTAR":"0.00014241000000","ECCENTRICITY":"0.00004990","TLE_LINE2":"2 48384  53.0543 156.4069 0000499  59.3627 300.7411 15.06413562117811","MEAN_ELEMENT_THEORY":"SGP4","MEAN_MOTION_DOT":"0.00001841","SEMIMAJOR_AXIS":"6925.307","MEAN_MOTION_DDOT":"0.0000000000000","MEAN_ANOMALY":"300.7411"},{"MEAN_ANOMALY":"277.2357","MEAN_MOTION_DDOT":"0.0000000000000","BSTAR":"0.00006394100000","ECCENTRICITY":"0.00011700","MEAN_MOTION_DOT":"0.00000671","SEMIMAJOR_AXIS":"6925.344","TLE_LINE2":"2 48385  53.0535 158.2105 0001170  82.8765 277.2357 15.06401496117758","MEAN_ELEMENT_THEORY":"SGP4","NORAD_CAT_ID":"48385","RCS_SIZE":"LARGE","REV_AT_EPOCH":"11775","COUNTRY_CODE":"US","MEAN_MOTION":"15.06401496","FILE":"3932965","APOAPSIS":"548.019","ARG_OF_PERICENTER":"82.8765","EPOCH":"2023-06-14T06:20:00.517632","TIME_SYSTEM":"UTC","OBJECT_NAME":"STARLINK-2598","PERIAPSIS":"546.399","SITE":"AFETR","RA_OF_ASC_NODE":"158.2105","REF_FRAME":"TEME","EPHEMERIS_TYPE":"0","CLASSIFICATION_TYPE":"U","ELEMENT_SET_NO":"999","LAUNCH_DATE":"2021-05-04","INCLINATION":"53.0535","OBJECT_TYPE":"PAYLOAD","DECAY_DATE":null,"GP_ID":"233912866","OBJECT_ID":"2021-038AJ","CENTER_NAME":"EARTH","TLE_LINE1":"1 48385U 21038AJ  23165.26389488  .00000671  00000-0  63941-4 0  9998","PERIOD":"95.592"},{"COUNTRY_CODE":"US","MEAN_MOTION":"15.06401332","APOAPSIS":"548.066","FILE":"3933215","ARG_OF_PERICENTER":"88.1800","EPOCH":"2023-06-14T15:35:19.832640","RCS_SIZE":"LARGE","NORAD_CAT_ID":"48386","REV_AT_EPOCH":"11665","BSTAR":"0.00007424600000","ECCENTRICITY":"0.00012370","MEAN_MOTION_DOT":"0.00000825","SEMIMAJOR_AXIS":"6925.344","TLE_LINE2":"2 48386  53.0535 151.4892 0001237  88.1800 271.9331 15.06401332116650","MEAN_ELEMENT_THEORY":"SGP4","MEAN_ANOMALY":"271.9331","MEAN_MOTION_DDOT":"0.0000000000000","DECAY_DATE":null,"OBJECT_ID":"2021-038AK","GP_ID":"233945743","CENTER_NAME":"EARTH","TLE_LINE1":"1 48386U 21038AK  23165.64953510  .00000825  00000-0  74246-4 0  9995","PERIOD":"95.592","REF_FRAME":"TEME","EPHEMERIS_TYPE":"0","CLASSIFICATION_TYPE":"U","ELEMENT_SET_NO":"999","INCLINATION":"53.0535","LAUNCH_DATE":"2021-05-04","OBJECT_TYPE":"PAYLOAD","TIME_SYSTEM":"UTC","OBJECT_NAME":"STARLINK-2606","PERIAPSIS":"546.353","RA_OF_ASC_NODE":"151.4892","SITE":"AFETR"},{"CENTER_NAME":"EARTH","OBJECT_ID":"2021-038AL","GP_ID":"233944492","DECAY_DATE":null,"PERIOD":"95.592","TLE_LINE1":"1 48387U 21038AL  23165.67902959 -.00000858  00000-0 -38732-4 0  9998","EPHEMERIS_TYPE":"0","REF_FRAME":"TEME","LAUNCH_DATE":"2021-05-04","INCLINATION":"53.0543","OBJECT_TYPE":"PAYLOAD","ELEMENT_SET_NO":"999","CLASSIFICATION_TYPE":"U","PERIAPSIS":"546.304","OBJECT_NAME":"STARLINK-2600","TIME_SYSTEM":"UTC","SITE":"AFETR","RA_OF_ASC_NODE":"151.3193","FILE":"3933215","APOAPSIS":"548.154","MEAN_MOTION":"15.06394937","COUNTRY_CODE":"US","EPOCH":"2023-06-14T16:17:48.156576","ARG_OF_PERICENTER":"88.2989","REV_AT_EPOCH":"11666","NORAD_CAT_ID":"48387","RCS_SIZE":"LARGE","ECCENTRICITY":"0.00013360","BSTAR":"-0.00003873200000","MEAN_ELEMENT_THEORY":"SGP4","TLE_LINE2":"2 48387  53.0543 151.3193 0001336  88.2989 271.8153 15.06394937116666","SEMIMAJOR_AXIS":"6925.364","MEAN_MOTION_DOT":"-0.00000858","MEAN_MOTION_DDOT":"0.0000000000000","MEAN_ANOMALY":"271.8153"},{"EPOCH":"2023-06-14T16:12:29.594592","ARG_OF_PERICENTER":"87.6858","COUNTRY_CODE":"US","FILE":"3933215","APOAPSIS":"547.977","MEAN_MOTION":"15.06397349","RCS_SIZE":"LARGE","NORAD_CAT_ID":"48388","REV_AT_EPOCH":"11666","SEMIMAJOR_AXIS":"6925.357","MEAN_MOTION_DOT":"-0.00000772","MEAN_ELEMENT_THEORY":"SGP4","TLE_LINE2":"2 48388  53.0543 151.3663 0001090  87.6858 272.4256 15.06397349116665","ECCENTRICITY":"0.00010900","BSTAR":"-0.00003294700000","MEAN_ANOMALY":"272.4256","MEAN_MOTION_DDOT":"0.0000000000000","TLE_LINE1":"1 48388U 21038AM  23165.67534253 -.00000772  00000-0 -32947-4 0  9994","PERIOD":"95.592","DECAY_DATE":null,"CENTER_NAME":"EARTH","GP_ID":"233945243","OBJECT_ID":"2021-038AM","CLASSIFICATION_TYPE":"U","ELEMENT_SET_NO":"999","INCLINATION":"53.0543","LAUNCH_DATE":"2021-05-04","OBJECT_TYPE":"PAYLOAD","REF_FRAME":"TEME","EPHEMERIS_TYPE":"0","SITE":"AFETR","RA_OF_ASC_NODE":"151.3663","OBJECT_NAME":"STARLINK-2594","TIME_SYSTEM":"UTC","PERIAPSIS":"546.467"},{"MEAN_MOTION_DDOT":"0.0000000000000","MEAN_ANOMALY":"275.5813","BSTAR":"0.00004003300000","ECCENTRICITY":"0.00012330","TLE_LINE2":"2 48389  53.0546 146.4170 0001233  84.5316 275.5813 15.06394037116722","MEAN_ELEMENT_THEORY":"SGP4","MEAN_MOTION_DOT":"0.00000315","SEMIMAJOR_AXIS":"6925.367","REV_AT_EPOCH":"11672","NORAD_CAT_ID":"48389","RCS_SIZE":"LARGE","MEAN_MOTION":"15.06394037","FILE":"3933215","APOAPSIS":"548.086","COUNTRY_CODE":"US","ARG_OF_PERICENTER":"84.5316","EPOCH":"2023-06-14T15:53:13.018272","PERIAPSIS":"546.378","TIME_SYSTEM":"UTC","OBJECT_NAME":"STARLINK-1904","SITE":"AFETR","RA_OF_ASC_NODE":"146.4170","EPHEMERIS_TYPE":"0","REF_FRAME":"TEME","INCLINATION":"53.0546","LAUNCH_DATE":"2021-05-04","OBJECT_TYPE":"PAYLOAD","CLASSIFICATION_TYPE":"U","ELEMENT_SET_NO":"999","GP_ID":"233945494","OBJECT_ID":"2021-038AN","CENTER_NAME":"EARTH","DECAY_DATE":null,"PERIOD":"95.593","TLE_LINE1":"1 48389U 21038AN  23165.66195623  .00000315  00000-0  40033-4 0  9994"},{"RCS_SIZE":"LARGE","NORAD_CAT_ID":"48390","REV_AT_EPOCH":"11794","COUNTRY_CODE":"US","FILE":"3933215","APOAPSIS":"548.181","MEAN_MOTION":"15.06391691","EPOCH":"2023-06-14T15:49:17.372640","ARG_OF_PERICENTER":"90.1313","MEAN_ANOMALY":"269.9832","MEAN_MOTION_DDOT":"0.0000000000000","ECCENTRICITY":"0.00013600","BSTAR":"0.00000944620000","SEMIMAJOR_AXIS":"6925.374","MEAN_MOTION_DOT":"-0.00000141","MEAN_ELEMENT_THEORY":"SGP4","TLE_LINE2":"2 48390  53.0531 146.4360 0001360  90.1313 269.9832 15.06391691117946","DECAY_DATE":null,"CENTER_NAME":"EARTH","GP_ID":"233946244","OBJECT_ID":"2021-038AP","TLE_LINE1":"1 48390U 21038AP  23165.65922885 -.00000141  00000-0  94462-5 0  9997","PERIOD":"95.593","OBJECT_NAME":"STARLINK-2586","TIME_SYSTEM":"UTC","PERIAPSIS":"546.297","RA_OF_ASC_NODE":"146.4360","SITE":"AFETR","REF_FRAME":"TEME","EPHEMERIS_TYPE":"0","ELEMENT_SET_NO":"999","CLASSIFICATION_TYPE":"U","OBJECT_TYPE":"PAYLOAD","LAUNCH_DATE":"2021-05-04","INCLINATION":"53.0531"},{"OBJECT_NAME":"STARLINK-2607","TIME_SYSTEM":"UTC","PERIAPSIS":"546.258","SITE":"AFETR","RA_OF_ASC_NODE":"146.4546","REF_FRAME":"TEME","EPHEMERIS_TYPE":"0","ELEMENT_SET_NO":"999","CLASSIFICATION_TYPE":"U","LAUNCH_DATE":"2021-05-04","OBJECT_TYPE":"PAYLOAD","INCLINATION":"53.0543","DECAY_DATE":null,"CENTER_NAME":"EARTH","GP_ID":"233944993","OBJECT_ID":"2021-038AQ","TLE_LINE1":"1 48391U 21038AQ  23165.65552947 -.00000144  00000-0  92399-5 0  9996","PERIOD":"95.593","MEAN_ANOMALY":"279.5903","MEAN_MOTION_DDOT":"0.0000000000000","ECCENTRICITY":"0.00014080","BSTAR":"0.00000923990000","SEMIMAJOR_AXIS":"6925.368","MEAN_MOTION_DOT":"-0.00000144","MEAN_ELEMENT_THEORY":"SGP4","TLE_LINE2":"2 48391  53.0543 146.4546 0001408  80.5245 279.5903 15.06393781117944","NORAD_CAT_ID":"48391","RCS_SIZE":"LARGE","REV_AT_EPOCH":"11794","COUNTRY_CODE":"US","APOAPSIS":"548.208","FILE":"3933215","MEAN_MOTION":"15.06393781","EPOCH":"2023-06-14T15:43:57.746208","ARG_OF_PERICENTER":"80.5245"}];
